[{"OBJECT_NAME":"STARLINK-4431","OBJECT_ID":"2022-099X","EPOCH":"2026-03-09T21:35:47.349312","MEAN_MOTION":15.0126052,"ECCENTRICITY":0.00036348,"INCLINATION":97.6018,"RA_OF_ASC_NODE":190.4109,"ARG_OF_PERICENTER":169.3856,"MEAN_ANOMALY":190.7446,"EPHEMERIS_TYPE":0,"CLASSIFICATION_TYPE":"U","NORAD_CAT_ID":53486,"ELEMENT_SET_NO":999,"REV_AT_EPOCH":19601,"BSTAR":-4.7761047e-5,"MEAN_MOTION_DOT":-6.72e-6,"MEAN_MOTION_DDOT":0},{"OBJECT_NAME":"HAWK-8A","OBJECT_ID":"2024-066B","EPOCH":"2026-03-09T09:46:26.156352","MEAN_MOTION":14.98766556,"ECCENTRICITY":0.00042143,"INCLINATION":45.5937,"RA_OF_ASC_NODE":72.3645,"ARG_OF_PERICENTER":254.4969,"MEAN_ANOMALY":105.5447,"EPHEMERIS_TYPE":0,"CLASSIFICATION_TYPE":"U","NORAD_CAT_ID":59443,"ELEMENT_SET_NO":999,"REV_AT_EPOCH":10486,"BSTAR":0.0002089936,"MEAN_MOTION_DOT":2.325e-5,"MEAN_MOTION_DDOT":0}]
